HYSIS                   
1 43719U 18096A   26181.81336870  .00001079  00000+0  15440-3 0  9995
2 43719  97.9840 248.4540 0001854  90.3969 269.7455 14.78643426409437
KAZSTSAT                
1 43783U 18099AB  26181.64033634  .00001975  00000+0  16357-3 0  9995
2 43783  97.4297 212.9593 0008413  32.1219 328.0517 14.99913928413324
SAUDISAT 5A             
1 43831U 18102A   26181.85065684  .00005697  00000+0  20969-3 0  9996
2 43831  97.3062 243.1687 0011266  87.7862 272.4667 15.28186994417765
SAUDISAT 5B             
1 43833U 18102C   26181.86723615  .00005624  00000+0  20546-3 0  9995
2 43833  97.3172 246.2795 0011993  89.4156 270.8458 15.28437102417888
GAOFEN-10R              
1 44622U 19066A   26181.85025068  .00001164  00000+0  14990-3 0  9999
2 44622  98.0503 135.5291 0007176  89.7855 270.4180 14.83029296364407
CARTOSAT-3              
1 44804U 19081A   26181.85695351  .00002070  00000+0  10130-3 0  9995
2 44804  97.4298 243.5039 0013338 104.8976 255.3737 15.19228110365545
GAOFEN-12 01            
1 44819U 19082A   26181.86760286  .00000407  00000+0  59880-4 0  9991
2 44819  97.8102 187.8859 0001719  56.3117 303.8260 14.80469510356118
CSG-1                   
1 44873U 19092A   26181.82348003  .00000426  00000+0  60084-4 0  9996
2 44873  97.8891   5.2287 0001402  90.1962 269.9412 14.82155561353493
NEMO-HD                 
1 46277U 20061F   26181.86292231  .00011738  00000+0  25188-3 0  9992
2 46277  97.1914 243.6793 0001603  74.0550 286.0876 15.44866694324092
SENTINEL-6A             
1 46984U 20086A   26181.74877245 -.00000059  00000+0  68023-5 0  9997
2 46984  66.0412 106.8857 0007835 269.9702  90.0415 12.80929946262060
CAS500-1                
1 47932U 21022A   26181.88616140  .00005839  00000+0  27319-3 0  9993
2 47932  97.3886  76.8615 0003400 231.6474 128.4456 15.20125156292848
GAOFEN-12 02            
1 48079U 21026A   26181.88013169  .00000377  00000+0  56432-4 0  9993
2 48079  97.9924 180.0048 0004760 172.6485 187.4797 14.80306546283789
PLEIADES NEO 3          
1 48268U 21034A   26181.82717684  .00000192  00000+0  30975-4 0  9998
2 48268  97.8940 256.3971 0001321  91.5374 268.5990 14.81672391279678
PLEIADES NEO 4          
1 49070U 21073E   26181.86092507  .00000716  00000+0  97626-4 0  9995
2 49070  97.8939 256.4268 0001362  87.3273 272.8096 14.81676821263393
LANDSAT 9               
1 49260U 21088A   26181.65584308  .00000340  00000+0  85620-4 0  9998
2 49260  98.2277 251.6700 0001221  86.2414 273.8924 14.57106205252960
CSG-2                   
1 51444U 22008A   26181.85722705  .00000366  00000+0  52476-4 0  9996
2 51444  97.8880   5.2564 0001521  84.1192 276.0195 14.82153112238614
GAOFEN-12 03            
1 52912U 22069A   26181.84484263  .00000869  00000+0  12142-3 0  9990
2 52912  97.8269  69.3707 0002404  88.7187 271.4301 14.80054849216632
SWOT                    
1 54754U 22173A   26181.77892487  .00000070  00000+0  49478-4 0  9992
2 54754  77.6101  16.9609 0000311  87.2883 272.8304 14.00171103181050
GAOFEN-12 04            
1 57654U 23123A   26181.86163950  .00000953  00000+0  13360-3 0  9996
2 57654  97.9114  99.6789 0003958  79.0263 281.1393 14.79751575154659
PARS 1                  
1 59065U 24039Q   26181.90806081  .00012230  00000+0  25189-3 0  9998
2 59065  97.4827 163.2626 0011234  71.2550 288.9917 15.46009185130761
RESURS-P 4              
1 59371U 24061A   26181.84750721  .00002978  00000+0  98226-4 0  9996
2 59371  97.2758 129.5090 0002946 109.6113 250.5448 15.32207147125854
LEGION 1                
1 59625U 24081A   26181.75169419  .00003847  00000+0  19937-3 0  9995
2 59625  97.5019 259.4642 0008262 328.9526  31.1217 15.16757130119591
LEGION 2                
1 59626U 24081B   26181.78186711  .00004049  00000+0  20967-3 0  9993
2 59626  97.5020 259.5912 0009902 291.1573  68.8601 15.16736243119608
ALOS-4 (DAICHI-4)       
1 60182U 24123A   26181.82035907  .00001450  00000+0  20105-3 0  9991
2 60182  97.9219 278.8007 0001631  98.3017 261.8380 14.79468473107893
LEGION 3                
1 60452U 24146A   26181.77053257  .00004393  00000+0  23779-3 0  9997
2 60452  45.0024 317.7036 0008821 246.3074 113.6880 15.16052984104087
LEGION 4                
1 60453U 24146B   26181.77349123  .00004500  00000+0  24257-3 0  9990
2 60453  45.0024  49.5955 0012154  23.4316 336.7115 15.16137944102936
SENTINEL-2C             
1 60989U 24157A   26181.66903229  .00000110  00000+0  58712-4 0  9994
2 60989  98.5691 256.2603 0000905  92.3735 267.7552 14.30821390 94917
IONOSFERA-M 1           
1 61735U 24199A   26181.76668522  .00000053  00000+0  43116-4 0  9993
2 61735  98.7155  54.7945 0002184  92.2662 267.8766 14.22756738129633
IONOSFERA-M 2           
1 61736U 24199B   26181.80094760  .00000063  00000+0  47665-4 0  9990
2 61736  98.7154  54.7389 0000467  45.3791 314.7425 14.22760047132769
PRSC-EO1                
1 62725U 25012A   26180.32319951  .00006199  00000+0  31012-3 0  9996
2 62725  97.4228 252.5458 0005823 202.3113 157.7868 15.17758644 80038
BIOMASS                 
1 63772U 25090A   26181.80841128  .00001084  00000+0  20206-3 0  9996
2 63772  98.0744   8.9237 0001208  90.5303 269.6040 14.66986796 62680
